{"type": "FeatureCollection", "features": [ {"type": "Feature", "properties": {"norad_id": 40115, "name": "WORLDVIEW-3 (WV-3)", "group": "resource", "lat": 72.7594256092174, "lon": 31.2319333724322, "alt_km": 606.3690977104843, "timestamp": "2025-12-11T08:58:26.771335+00:00", "meta": {"OBJECT_NAME": "WORLDVIEW-3 (WV-3)", "OBJECT_ID": "2014-048A", "EPOCH": "2025-12-11T05:24:21.657024", "MEAN_MOTION": 14.85505154, "ECCENTRICITY": 0.0004633, "INCLINATION": 97.8617, "RA_OF_ASC_NODE": 57.5245, "ARG_OF_PERICENTER": 189.864, "MEAN_ANOMALY": 170.2485, "EPHEMERIS_TYPE": 0, "CLASSIFICATION_TYPE": "U", "NORAD_CAT_ID": 40115, "ELEMENT_SET_NO": 999, "REV_AT_EPOCH": 61401, "BSTAR": 0.00020746, "MEAN_MOTION_DOT": 1.738e-05, "MEAN_MOTION_DDOT": 0}, "tle": {"line1": "1 40115U 14048A   25345.22525066  .00001738  00000+0  20746-3 0  9995", "line2": "2 40115  97.8617  57.5245 0004633 189.8640 170.2485 14.85505154614018"}}, "geometry": {"type": "Point", "coordinates": [31.2319333724322, 72.7594256092174]}}, {"type": "Feature", "properties": {"norad_id": 40118, "name": "GAOFEN-2", "group": "resource", "lat": -79.88653011616302, "lon": 96.93697482020758, "alt_km": 640.3377854466689, "timestamp": "2025-12-11T08:58:26.771346+00:00", "meta": {"OBJECT_NAME": "GAOFEN-2", "OBJECT_ID": "2014-049A", "EPOCH": "2025-12-11T04:29:13.437312", "MEAN_MOTION": 14.80602867, "ECCENTRICITY": 0.0008496, "INCLINATION": 98.0382, "RA_OF_ASC_NODE": 44.3521, "ARG_OF_PERICENTER": 117.3662, "MEAN_ANOMALY": 242.8415, "EPHEMERIS_TYPE": 0, "CLASSIFICATION_TYPE": "U", "NORAD_CAT_ID": 40118, "ELEMENT_SET_NO": 999, "REV_AT_EPOCH": 61141, "BSTAR": 0.00014057, "MEAN_MOTION_DOT": 1.025e-05, "MEAN_MOTION_DDOT": 0}, "tle": {"line1": "1 40118U 14049A   25345.18696108  .00001025  00000+0  14057-3 0  9997", "line2": "2 40118  98.0382  44.3521 0008496 117.3662 242.8415 14.80602867611419"}}, "geometry": {"type": "Point", "coordinates": [96.93697482020758, -79.88653011616302]}}, {"type": "Feature", "properties": {"norad_id": 40143, "name": "YAOGAN-21", "group": "resource", "lat": 27.906726543709567, "lon": 24.91974036958286, "alt_km": 487.30026009653557, "timestamp": "2025-12-11T08:58:26.771357+00:00", "meta": {"OBJECT_NAME": "YAOGAN-21", "OBJECT_ID": "2014-053A", "EPOCH": "2025-12-11T04:07:21.431712", "MEAN_MOTION": 15.23647736, "ECCENTRICITY": 0.0009842, "INCLINATION": 97.1757, "RA_OF_ASC_NODE": 28.5523, "ARG_OF_PERICENTER": 46.8703, "MEAN_ANOMALY": 313.3356, "EPHEMERIS_TYPE": 0, "CLASSIFICATION_TYPE": "U", "NORAD_CAT_ID": 40143, "ELEMENT_SET_NO": 999, "REV_AT_EPOCH": 62630, "BSTAR": 0.00033325, "MEAN_MOTION_DOT": 7.933e-05, "MEAN_MOTION_DDOT": 0}, "tle": {"line1": "1 40143U 14053A   25345.17177583  .00007933  00000+0  33325-3 0  9993", "line2": "2 40143  97.1757  28.5523 0009842  46.8703 313.3356 15.23647736626301"}}, "geometry": {"type": "Point", "coordinates": [24.91974036958286, 27.906726543709567]}}, {"type": "Feature", "properties": {"norad_id": 40275, "name": "YAOGAN-22", "group": "resource", "lat": 14.734088245858436, "lon": -48.364686133942, "alt_km": 1202.2246236826195, "timestamp": "2025-12-11T08:58:26.771367+00:00", "meta": {"OBJECT_NAME": "YAOGAN-22", "OBJECT_ID": "2014-063A", "EPOCH": "2025-12-11T02:39:44.143776", "MEAN_MOTION": 13.15522591, "ECCENTRICITY": 0.0005946, "INCLINATION": 100.742, "RA_OF_ASC_NODE": 128.5074, "ARG_OF_PERICENTER": 252.2554, "MEAN_ANOMALY": 107.7909, "EPHEMERIS_TYPE": 0, "CLASSIFICATION_TYPE": "U", "NORAD_CAT_ID": 40275, "ELEMENT_SET_NO": 999, "REV_AT_EPOCH": 53508, "BSTAR": 7.3202e-05, "MEAN_MOTION_DOT": -1.9e-07, "MEAN_MOTION_DDOT": 0}, "tle": {"line1": "1 40275U 14063A   25345.11092759 -.00000019  00000+0  73202-4 0  9993", "line2": "2 40275 100.7420 128.5074 0005946 252.2554 107.7909 13.15522591535088"}}, "geometry": {"type": "Point", "coordinates": [-48.364686133942, 14.734088245858436]}}, {"type": "Feature", "properties": {"norad_id": 40298, "name": "ASNARO", "group": "resource", "lat": 80.08345088342587, "lon": -70.92911840263439, "alt_km": 496.9227536294029, "timestamp": "2025-12-11T08:58:26.771378+00:00", "meta": {"OBJECT_NAME": "ASNARO", "OBJECT_ID": "2014-070A", "EPOCH": "2025-12-11T05:23:21.738624", "MEAN_MOTION": 15.19442368, "ECCENTRICITY": 0.0005353, "INCLINATION": 97.3648, "RA_OF_ASC_NODE": 61.2075, "ARG_OF_PERICENTER": 126.6394, "MEAN_ANOMALY": 233.5334, "EPHEMERIS_TYPE": 0, "CLASSIFICATION_TYPE": "U", "NORAD_CAT_ID": 40298, "ELEMENT_SET_NO": 999, "REV_AT_EPOCH": 61546, "BSTAR": 0.00079251, "MEAN_MOTION_DOT": 0.0001676, "MEAN_MOTION_DDOT": 0}, "tle": {"line1": "1 40298U 14070A   25345.22455716  .00016760  00000+0  79251-3 0  9992", "line2": "2 40298  97.3648  61.2075 0005353 126.6394 233.5334 15.19442368615468"}}, "geometry": {"type": "Point", "coordinates": [-70.92911840263439, 80.08345088342587]}}, {"type": "Feature", "properties": {"norad_id": 40310, "name": "YAOGAN-24", "group": "resource", "lat": -75.80497060661354, "lon": 150.834485132333, "alt_km": 656.6057074583141, "timestamp": "2025-12-11T08:58:26.771389+00:00", "meta": {"OBJECT_NAME": "YAOGAN-24", "OBJECT_ID": "2014-072A", "EPOCH": "2025-12-11T04:26:56.350752", "MEAN_MOTION": 14.76170119, "ECCENTRICITY": 0.0014678, "INCLINATION": 98.1224, "RA_OF_ASC_NODE": 116.2699, "ARG_OF_PERICENTER": 142.6736, "MEAN_ANOMALY": 217.5495, "EPHEMERIS_TYPE": 0, "CLASSIFICATION_TYPE": "U", "NORAD_CAT_ID": 40310, "ELEMENT_SET_NO": 999, "REV_AT_EPOCH": 59598, "BSTAR": 0.000177, "MEAN_MOTION_DOT": 1.173e-05, "MEAN_MOTION_DDOT": 0}, "tle": {"line1": "1 40310U 14072A   25345.18537443  .00001173  00000+0  17700-3 0  9995", "line2": "2 40310  98.1224 116.2699 0014678 142.6736 217.5495 14.76170119595981"}}, "geometry": {"type": "Point", "coordinates": [150.834485132333, -75.80497060661354]}}, {"type": "Feature", "properties": {"norad_id": 40336, "name": "CBERS 4", "group": "resource", "lat": -41.305911890334514, "lon": -143.96030790694093, "alt_km": 780.2516746464971, "timestamp": "2025-12-11T08:58:26.771400+00:00", "meta": {"OBJECT_NAME": "CBERS 4", "OBJECT_ID": "2014-079A", "EPOCH": "2025-12-11T04:35:55.356288", "MEAN_MOTION": 14.35516596, "ECCENTRICITY": 0.0001628, "INCLINATION": 98.3306, "RA_OF_ASC_NODE": 43.2611, "ARG_OF_PERICENTER": 114.6058, "MEAN_ANOMALY": 245.5298, "EPHEMERIS_TYPE": 0, "CLASSIFICATION_TYPE": "U", "NORAD_CAT_ID": 40336, "ELEMENT_SET_NO": 999, "REV_AT_EPOCH": 57698, "BSTAR": 6.6555e-05, "MEAN_MOTION_DOT": 1.49e-06, "MEAN_MOTION_DDOT": 0}, "tle": {"line1": "1 40336U 14079A   25345.19161292  .00000149  00000+0  66555-4 0  9991", "line2": "2 40336  98.3306  43.2611 0001628 114.6058 245.5298 14.35516596576981"}}, "geometry": {"type": "Point", "coordinates": [-143.96030790694093, -41.305911890334514]}}, {"type": "Feature", "properties": {"norad_id": 40362, "name": "YAOGAN-26", "group": "resource", "lat": 26.16843014944714, "lon": -17.39723922558468, "alt_km": 443.21236259231955, "timestamp": "2025-12-11T08:58:26.771411+00:00", "meta": {"OBJECT_NAME": "YAOGAN-26", "OBJECT_ID": "2014-088A", "EPOCH": "2025-12-11T04:10:45.138720", "MEAN_MOTION": 15.39211124, "ECCENTRICITY": 0.0006479, "INCLINATION": 97.0646, "RA_OF_ASC_NODE": 345.9038, "ARG_OF_PERICENTER": 34.0246, "MEAN_ANOMALY": 326.1415, "EPHEMERIS_TYPE": 0, "CLASSIFICATION_TYPE": "U", "NORAD_CAT_ID": 40362, "ELEMENT_SET_NO": 999, "REV_AT_EPOCH": 60870, "BSTAR": 0.00078195, "MEAN_MOTION_DOT": 0.00030425, "MEAN_MOTION_DDOT": 0}, "tle": {"line1": "1 40362U 14088A   25345.17413355  .00030425  00000+0  78195-3 0  9990", "line2": "2 40362  97.0646 345.9038 0006479  34.0246 326.1415 15.39211124608708"}}, "geometry": {"type": "Point", "coordinates": [-17.39723922558468, 26.16843014944714]}}, {"type": "Feature", "properties": {"norad_id": 40376, "name": "SMAP", "group": "resource", "lat": -70.40737804629187, "lon": 13.794075364886735, "alt_km": 690.4822989306849, "timestamp": "2025-12-11T08:58:26.771422+00:00", "meta": {"OBJECT_NAME": "SMAP", "OBJECT_ID": "2015-003A", "EPOCH": "2025-12-11T04:22:48.234144", "MEAN_MOTION": 14.63341741, "ECCENTRICITY": 0.0001201, "INCLINATION": 98.1292, "RA_OF_ASC_NODE": 349.9288, "ARG_OF_PERICENTER": 89.0447, "MEAN_ANOMALY": 271.0892, "EPHEMERIS_TYPE": 0, "CLASSIFICATION_TYPE": "U", "NORAD_CAT_ID": 40376, "ELEMENT_SET_NO": 999, "REV_AT_EPOCH": 58012, "BSTAR": 0.00018056, "MEAN_MOTION_DOT": 8.85e-06, "MEAN_MOTION_DDOT": 0}, "tle": {"line1": "1 40376U 15003A   25345.18250271  .00000885  00000+0  18056-3 0  9997", "line2": "2 40376  98.1292 349.9288 0001201  89.0447 271.0892 14.63341741580121"}}, "geometry": {"type": "Point", "coordinates": [13.794075364886735, -70.40737804629187]}}, {"type": "Feature", "properties": {"norad_id": 40536, "name": "KOMPSAT-3A", "group": "resource", "lat": -55.186405844678305, "lon": -29.166489207078136, "alt_km": 445.0422682121889, "timestamp": "2025-12-11T08:58:26.771433+00:00", "meta": {"OBJECT_NAME": "KOMPSAT-3A", "OBJECT_ID": "2015-014A", "EPOCH": "2025-12-11T04:32:58.454880", "MEAN_MOTION": 15.43853225, "ECCENTRICITY": 0.0004781, "INCLINATION": 97.6791, "RA_OF_ASC_NODE": 319.4503, "ARG_OF_PERICENTER": 130.9421, "MEAN_ANOMALY": 229.224, "EPHEMERIS_TYPE": 0, "CLASSIFICATION_TYPE": "U", "NORAD_CAT_ID": 40536, "ELEMENT_SET_NO": 999, "REV_AT_EPOCH": 59271, "BSTAR": 0.00062487, "MEAN_MOTION_DOT": 0.00028323, "MEAN_MOTION_DDOT": 0}, "tle": {"line1": "1 40536U 15014A   25345.18956545  .00028323  00000+0  62487-3 0  9998", "line2": "2 40536  97.6791 319.4503 0004781 130.9421 229.2240 15.43853225592717"}}, "geometry": {"type": "Point", "coordinates": [-29.166489207078136, -55.186405844678305]}}]}